NORAD_CAT_ID,OBJECT_NAME,OBJECT_TYPE,EPOCH,MEAN_MOTION,ECCENTRICITY,INCLINATION,RA_OF_ASC_NODE,ARG_OF_PERICENTER,MEAN_ANOMALY,BSTAR,MEAN_MOTION_DOT,MEAN_MOTION_DDOT,TLE_LINE0,TLE_LINE1,TLE_LINE2,SEMIMAJOR_AXIS,PERIOD,APOGEE,PERIGEE,DECAYED
54085.0,STARLINK-5166,PAYLOAD,2024-03-15 22:49:54,15.08835315,0.0001363,53.2191,343.1407,99.8722,260.2424,0.00022961,3.368e-05,0.0,0 STARLINK-5166,1 54085U 22136AL  24075.95132870  .00003368  00000-0  22961-3 0  9992,2 54085  53.2191 343.1407 0001363  99.8722 260.2424 15.08835315 77729,6917.895,95.438,540.703,538.817,0.0
54085.0,STARLINK-5166,PAYLOAD,2024-03-16 03:36:03,15.08840964,0.0001668,53.2184,342.2492,108.2113,251.906,-3.1777e-05,-7.94e-06,0.0,0 STARLINK-5166,1 54085U 22136AL  24076.15004468 -.00000794  00000-0 -31777-4 0  9994,2 54085  53.2184 342.2492 0001668 108.2113 251.9060 15.08840964 78227,6917.877,95.437,540.896,538.589,0.0
54085.0,STARLINK-5166,PAYLOAD,2024-03-16 21:05:18,15.08829144,0.0001564,53.2174,338.9776,118.2835,241.8315,0.00023103,3.39e-05,0.0,0 STARLINK-5166,1 54085U 22136AL  24076.87868999  .00003390  00000-0  23103-3 0  9996,2 54085  53.2174 338.9776 0001564 118.2835 241.8315 15.08829144 78330,6917.914,95.438,540.861,538.697,0.0
54085.0,STARLINK-5166,PAYLOAD,2024-03-16 22:40:41,15.08841542,0.0001525,53.2183,338.6801,112.7551,247.3602,-1.6956e-05,-5.58e-06,0.0,0 STARLINK-5166,1 54085U 22136AL  24076.94492723 -.00000558  00000-0 -16956-4 0  9996,2 54085  53.2183 338.6801 0001525 112.7551 247.3602 15.08841542 77871,6917.876,95.437,540.796,538.686,0.0
54085.0,STARLINK-5166,PAYLOAD,2024-03-17 03:26:51,15.08844437,0.0001593,53.2187,337.7886,109.1825,250.934,-7.3232e-05,-1.453e-05,0.0,0 STARLINK-5166,1 54085U 22136AL  24077.14364657 -.00001453  00000-0 -73232-4 0  9998,2 54085  53.2187 337.7886 0001593 109.1825 250.9340 15.08844437 78378,6917.867,95.437,540.834,538.63,0.0
54085.0,STARLINK-5166,PAYLOAD,2024-03-17 22:31:28,15.08837172,0.0001453,53.2183,334.2211,107.4277,252.6874,9.6978e-05,1.256e-05,0.0,0 STARLINK-5166,1 54085U 22136AL  24077.93852799  .00001256  00000-0  96978-4 0  9995,2 54085  53.2183 334.2211 0001453 107.4277 252.6874 15.08837172 78026,6917.889,95.438,540.759,538.749,0.0
54085.0,STARLINK-5166,PAYLOAD,2024-03-18 20:46:52,15.08844472,0.0001381,53.2182,330.0589,106.4617,253.6527,0.00011483,1.54e-05,0.0,0 STARLINK-5166,1 54085U 22136AL  24078.86588355  .00001540  00000-0  11483-3 0  9995,2 54085  53.2182 330.0589 0001381 106.4617 253.6527 15.08844472 78638,6917.867,95.437,540.687,538.776,0.0
54085.0,STARLINK-5166,PAYLOAD,2024-03-18 22:22:15,15.08845515,0.0001372,53.2182,329.7616,105.061,255.0534,0.00012298,1.67e-05,0.0,0 STARLINK-5166,1 54085U 22136AL  24078.93212273  .00001670  00000-0  12298-3 0  9995,2 54085  53.2182 329.7616 0001372 105.0610 255.0534 15.08845515 78174,6917.864,95.437,540.678,538.779,0.0
54085.0,STARLINK-5166,PAYLOAD,2024-03-20 01:23:48,15.08850013,0.0001259,53.2176,324.7084,91.8663,268.2474,0.00010065,1.315e-05,0.0,0 STARLINK-5166,1 54085U 22136AL  24080.05819881  .00001315  00000-0  10065-3 0  9995,2 54085  53.2176 324.7084 0001259  91.8663 268.2474 15.08850013 78814,6917.85,95.437,540.586,538.844,0.0
54085.0,STARLINK-5166,PAYLOAD,2024-03-20 20:28:27,15.08834534,0.0001503,53.2185,321.1371,85.1896,274.9268,-1.9292e-05,-5.95e-06,0.0,0 STARLINK-5166,1 54085U 22136AL  24080.85309478 -.00000595  00000-0 -19292-4 0  9992,2 54085  53.2185 321.1371 0001503  85.1896 274.9268 15.08834534 78938,6917.897,95.438,540.802,538.722,0.0
54085.0,STARLINK-5166,PAYLOAD,2024-03-20 22:03:50,15.08834499,0.0001465,53.2183,320.8401,81.7241,278.3917,-1.6191e-05,-5.46e-06,0.0,0 STARLINK-5166,1 54085U 22136AL  24080.91933512 -.00000546  00000-0 -16191-4 0  9992,2 54085  53.2183 320.8401 0001465  81.7241 278.3917 15.08834499 78477,6917.897,95.438,540.776,538.749,0.0
54085.0,STARLINK-5166,PAYLOAD,2024-03-21 09:11:32,15.08837996,0.000127,53.2185,318.7607,89.6056,270.5082,3.0201e-05,1.93e-06,0.0,0 STARLINK-5166,1 54085U 22136AL  24081.38301275  .00000193  00000-0  30201-4 0  9993,2 54085  53.2185 318.7607 0001270  89.6056 270.5082 15.08837996 78548,6917.887,95.438,540.63,538.873,0.0
54085.0,STARLINK-5166,PAYLOAD,2024-03-21 21:54:36,15.08849467,0.0001425,53.2161,316.3855,72.928,287.1868,0.00026504,3.934e-05,0.0,0 STARLINK-5166,1 54085U 22136AL  24081.91292743  .00003934  00000-0  26504-3 0  9997,2 54085  53.2161 316.3855 0001425  72.9280 287.1868 15.08849467 79090,6917.851,95.437,540.702,538.731,0.0
54085.0,STARLINK-5166,PAYLOAD,2024-03-22 21:45:23,15.08848662,0.0001454,53.2171,311.9235,100.6157,259.4999,0.00025578,3.786e-05,0.0,0 STARLINK-5166,1 54085U 22136AL  24082.90652531  .00003786  00000-0  25578-3 0  9997,2 54085  53.2171 311.9235 0001454 100.6157 259.4999 15.08848662 79248,6917.854,95.437,540.725,538.713,0.0
54085.0,STARLINK-5166,PAYLOAD,2024-03-23 21:36:11,15.08838559,0.0001366,53.2154,307.463,74.2468,285.8675,-1.9693e-05,-6.01e-06,0.0,0 STARLINK-5166,1 54085U 22136AL  24083.90013363 -.00000601  00000-0 -19693-4 0  9999,2 54085  53.2154 307.4630 0001366  74.2468 285.8675 15.08838559 79395,6917.885,95.438,540.695,538.805,0.0
54085.0,STARLINK-5166,PAYLOAD,2024-03-24 00:46:57,15.08839705,0.0001421,53.2163,306.8659,94.695,265.4204,4.5773e-05,4.41e-06,0.0,0 STARLINK-5166,1 54085U 22136AL  24084.03261235  .00000441  00000-0  45773-4 0  9995,2 54085  53.2163 306.8659 0001421  94.6950 265.4204 15.08839705 78949,6917.881,95.438,540.729,538.763,0.0
54085.0,STARLINK-5166,PAYLOAD,2024-03-24 21:26:57,15.08866538,0.0001328,53.2169,303.0037,79.1878,280.9263,0.00045848,7.022e-05,0.0,0 STARLINK-5166,1 54085U 22136AL  24084.89372175  .00007022  00000-0  45848-3 0  9999,2 54085  53.2169 303.0037 0001328  79.1878 280.9263 15.08866538 79545,6917.799,95.436,540.583,538.746,0.0
54085.0,STARLINK-5166,PAYLOAD,2024-03-25 21:17:46,15.08827576,0.0001283,53.2157,298.5405,79.6582,280.4555,-7.1864e-05,-1.431e-05,0.0,0 STARLINK-5166,1 54085U 22136AL  24085.88734341 -.00001431  00000-0 -71864-4 0  9994,2 54085  53.2157 298.5405 0001283  79.6582 280.4555 15.08827576 79690,6917.918,95.438,540.671,538.896,0.0
54085.0,STARLINK-5166,PAYLOAD,2024-03-26 06:50:05,15.08834088,0.0001365,53.2164,296.7563,83.9685,276.1463,9.9921e-05,1.302e-05,0.0,0 STARLINK-5166,1 54085U 22136AL  24086.28478441  .00001302  00000-0  99921-4 0  9994,2 54085  53.2164 296.7563 0001365  83.9685 276.1463 15.08834088 79287,6917.898,95.438,540.708,538.819,0.0
54085.0,STARLINK-5166,PAYLOAD,2024-03-26 21:08:32,15.08833005,0.0001233,53.215,294.0797,77.404,282.709,-0.00018507,-3.231e-05,0.0,0 STARLINK-5166,1 54085U 22136AL  24086.88093396 -.00003231  00000-0 -18507-3 0  9997,2 54085  53.2150 294.0797 0001233  77.4040 282.7090 15.08833005 79848,6917.902,95.438,540.62,538.914,0.0
54085.0,STARLINK-5166,PAYLOAD,2024-03-26 22:43:55,15.0883461,0.0001236,53.2154,293.7823,82.2019,277.9113,-0.00013695,-2.466e-05,0.0,0 STARLINK-5166,1 54085U 22136AL  24086.94717321 -.00002466  00000-0 -13695-3 0  9997,2 54085  53.2154 293.7823 0001236  82.2019 277.9113 15.08834610 79385,6917.897,95.438,540.617,538.907,0.0
54085.0,STARLINK-5166,PAYLOAD,2024-03-27 13:02:24,15.08828304,0.0001373,53.2162,291.1079,88.2277,271.8872,-1.4605e-05,-5.2e-06,0.0,0 STARLINK-5166,1 54085U 22136AL  24087.54334310 -.00000520  00000-0 -14605-4 0  9999,2 54085  53.2162 291.1079 0001373  88.2277 271.8872 15.08828304 79471,6917.916,95.438,540.731,538.831,0.0
54085.0,STARLINK-5166,PAYLOAD,2024-03-27 20:59:20,15.08836515,0.0001513,53.2165,289.6216,90.815,269.3016,4.9165e-05,4.94e-06,0.0,0 STARLINK-5166,1 54085U 22136AL  24087.87454088  .00000494  00000-0  49165-4 0  9997,2 54085  53.2165 289.6216 0001513  90.8150 269.3016 15.08836515 79525,6917.891,95.438,540.803,538.709,0.0
54085.0,STARLINK-5166,PAYLOAD,2024-03-27 22:34:43,15.08842856,0.0001442,53.216,289.3226,85.2271,274.8886,0.00016365,2.318e-05,0.0,0 STARLINK-5166,1 54085U 22136AL  24087.94078145  .00002318  00000-0  16365-3 0  9993,2 54085  53.2160 289.3226 0001442  85.2271 274.8886 15.08842856 80007,6917.872,95.437,540.734,538.739,0.0
54085.0,STARLINK-5166,PAYLOAD,2024-03-28 12:53:11,15.08839505,0.0001467,53.2157,286.6473,79.5539,280.5618,5.3236e-05,5.59e-06,0.0,0 STARLINK-5166,1 54085U 22136AL  24088.53694226  .00000559  00000-0  53236-4 0  9997,2 54085  53.2157 286.6473 0001467  79.5539 280.5618 15.08839505 79627,6917.882,95.438,540.762,538.732,0.0
54085.0,STARLINK-5166,PAYLOAD,2024-03-28 19:14:44,15.0884479,0.000145,53.2155,285.4577,77.7617,282.3537,7.9881e-05,9.84e-06,0.0,0 STARLINK-5166,1 54085U 22136AL  24088.80190097  .00000984  00000-0  79881-4 0  9990,2 54085  53.2155 285.4577 0001450  77.7617 282.3537 15.08844790 79662,6917.866,95.437,540.734,538.728,0.0
54085.0,STARLINK-5166,PAYLOAD,2024-03-29 12:43:58,15.08865286,0.0001336,53.2164,282.1857,84.5298,275.5847,0.00069915,0.00010864,0.0,0 STARLINK-5166,1 54085U 22136AL  24089.53053388  .00010864  00000-0  69915-3 0  9996,2 54085  53.2164 282.1857 0001336  84.5298 275.5847 15.08865286 80248,6917.803,95.436,540.592,538.744,0.0
54085.0,STARLINK-5166,PAYLOAD,2024-03-29 22:16:16,15.08844949,6.73e-05,53.2163,280.4002,234.3211,125.7718,9.1095e-05,1.163e-05,0.0,0 STARLINK-5166,1 54085U 22136AL  24089.92797151  .00001163  00000-0  91095-4 0  9999,2 54085  53.2163 280.4002 0000673 234.3211 125.7718 15.08844949 79832,6917.865,95.437,540.196,539.265,0.0
54085.0,STARLINK-5166,PAYLOAD,2024-03-30 12:34:46,15.08835471,0.0001361,53.2152,277.7256,83.8579,276.2568,3.2991e-05,2.37e-06,0.0,0 STARLINK-5166,1 54085U 22136AL  24090.52414683  .00000237  00000-0  32991-4 0  9994,2 54085  53.2152 277.7256 0001361  83.8579 276.2568 15.08835471 80397,6917.894,95.438,540.701,538.818,0.0
54085.0,STARLINK-5166,PAYLOAD,2024-03-30 18:56:18,15.08842323,0.0001396,53.2147,276.5367,82.9868,277.1283,0.00017425,2.487e-05,0.0,0 STARLINK-5166,1 54085U 22136AL  24090.78910468  .00002487  00000-0  17425-3 0  9997,2 54085  53.2147 276.5367 0001396  82.9868 277.1283 15.08842323 79969,6917.873,95.437,540.704,538.773,0.0
